SBSS (USA 216)          
1 37168U 10048A   26068.88624904  .00004946  00000+0  24191-3 0  9993
2 37168  97.7474 312.3885 0082264 184.8326 306.5835 15.15724210837421
STARLINK-34390          
1 64666U 25139C   26068.53491302  .00025068  00000+0  85699-3 0  9997
2 64666  53.1583 127.5300 0000725  82.6077 277.5007 15.30148233 40324
